[{"OBJECT_NAME":"STARLINK-36159","OBJECT_ID":"2025-298E","EPOCH":"2026-03-09T22:03:03.380832","MEAN_MOTION":14.99153219,"ECCENTRICITY":0.00023256,"INCLINATION":70.0019,"RA_OF_ASC_NODE":13.8101,"ARG_OF_PERICENTER":251.4113,"MEAN_ANOMALY":108.6794,"EPHEMERIS_TYPE":0,"CLASSIFICATION_TYPE":"U","NORAD_CAT_ID":67079,"ELEMENT_SET_NO":999,"REV_AT_EPOCH":1325,"BSTAR":0.0001811037,"MEAN_MOTION_DOT":2.114e-5,"MEAN_MOTION_DDOT":0},{"OBJECT_NAME":"IKONOS 2","OBJECT_ID":"1999-051A","EPOCH":"2026-03-09T15:19:40.153152","MEAN_MOTION":14.96976552,"ECCENTRICITY":0.0006412,"INCLINATION":98.1486,"RA_OF_ASC_NODE":313.4587,"ARG_OF_PERICENTER":157.8343,"MEAN_ANOMALY":202.3156,"EPHEMERIS_TYPE":0,"CLASSIFICATION_TYPE":"U","NORAD_CAT_ID":25919,"ELEMENT_SET_NO":999,"REV_AT_EPOCH":42402,"BSTAR":0.00024901,"MEAN_MOTION_DOT":2.801e-5,"MEAN_MOTION_DDOT":0}]
